start=new Date('2022-06-21T00:00:00.000Z').valueOf();
sats=[{"OBJECT_TYPE":"PAYLOAD","EPHEMERIS_TYPE":"0","FILE":"3498404","MEAN_MOTION":"15.08836252","SEMIMAJOR_AXIS":"6917.892","GP_ID":"206515599","OBJECT_ID":"2021-115AT","APOAPSIS":"541.607","PERIAPSIS":"537.907","CENTER_NAME":"EARTH","TLE_LINE2":"2 49765  53.2193 114.6951 0002674  57.4547 302.6703 15.08836252 30693","SITE":"AFETR","EPOCH":"2022-06-20T20:24:21.999168","MEAN_ELEMENT_THEORY":"SGP4","LAUNCH_DATE":"2021-12-02","NORAD_CAT_ID":"49765","RA_OF_ASC_NODE":"114.6951","MEAN_MOTION_DDOT":"0.0000000000000","INCLINATION":"53.2193","RCS_SIZE":"LARGE","PERIOD":"95.438","ELEMENT_SET_NO":"999","TIME_SYSTEM":"UTC","ARG_OF_PERICENTER":"57.4547","DECAY_DATE":null,"BSTAR":"-0.00001465600000","COUNTRY_CODE":"US","REF_FRAME":"TEME","TLE_LINE1":"1 49765U 21115AT  22171.85025462 -.00000522  00000-0 -14656-4 0  9993","REV_AT_EPOCH":"3069","MEAN_MOTION_DOT":"-0.00000522","OBJECT_NAME":"STARLINK-3227","ECCENTRICITY":"0.00026740","MEAN_ANOMALY":"302.6703","CLASSIFICATION_TYPE":"U"},{"FILE":"3498071","MEAN_MOTION":"15.08836894","EPHEMERIS_TYPE":"0","OBJECT_TYPE":"PAYLOAD","SITE":"AFETR","TLE_LINE2":"2 49766  53.2212 117.9136 0002824  50.5162 309.6079 15.08836894 30584","CENTER_NAME":"EARTH","PERIAPSIS":"537.801","OBJECT_ID":"2021-115AU","SEMIMAJOR_AXIS":"6917.890","GP_ID":"206481032","APOAPSIS":"541.708","MEAN_ELEMENT_THEORY":"SGP4","EPOCH":"2022-06-20T03:16:18.761664","NORAD_CAT_ID":"49766","RA_OF_ASC_NODE":"117.9136","MEAN_MOTION_DDOT":"0.0000000000000","LAUNCH_DATE":"2021-12-02","ARG_OF_PERICENTER":"50.5162","TIME_SYSTEM":"UTC","DECAY_DATE":null,"RCS_SIZE":"LARGE","INCLINATION":"53.2212","ELEMENT_SET_NO":"999","PERIOD":"95.438","TLE_LINE1":"1 49766U 21115AU  22171.13632826  .00000610  00000-0  56424-4 0  9998","COUNTRY_CODE":"US","BSTAR":"0.00005642400000","REF_FRAME":"TEME","REV_AT_EPOCH":"3058","OBJECT_NAME":"STARLINK-3190","MEAN_MOTION_DOT":"0.00000610","CLASSIFICATION_TYPE":"U","ECCENTRICITY":"0.00028240","MEAN_ANOMALY":"309.6079"},{"APOAPSIS":"541.606","SEMIMAJOR_AXIS":"6917.875","GP_ID":"206514606","OBJECT_ID":"2021-115AV","PERIAPSIS":"537.874","TLE_LINE2":"2 49767  53.2176 114.6764 0002697  60.5078 299.6183 15.08841776 30691","SITE":"AFETR","CENTER_NAME":"EARTH","OBJECT_TYPE":"PAYLOAD","EPHEMERIS_TYPE":"0","FILE":"3498404","MEAN_MOTION":"15.08841776","LAUNCH_DATE":"2021-12-02","MEAN_MOTION_DDOT":"0.0000000000000","NORAD_CAT_ID":"49767","RA_OF_ASC_NODE":"114.6764","EPOCH":"2022-06-20T20:34:56.738496","MEAN_ELEMENT_THEORY":"SGP4","REF_FRAME":"TEME","BSTAR":"0.00010568000000","COUNTRY_CODE":"US","TLE_LINE1":"1 49767U 21115AV  22171.85760114  .00001394  00000-0  10568-3 0  9998","PERIOD":"95.437","ELEMENT_SET_NO":"999","INCLINATION":"53.2176","RCS_SIZE":"LARGE","DECAY_DATE":null,"TIME_SYSTEM":"UTC","ARG_OF_PERICENTER":"60.5078","MEAN_ANOMALY":"299.6183","ECCENTRICITY":"0.00026970","CLASSIFICATION_TYPE":"U","MEAN_MOTION_DOT":"0.00001394","OBJECT_NAME":"STARLINK-3192","REV_AT_EPOCH":"3069"},{"RCS_SIZE":"LARGE","INCLINATION":"53.2173","ELEMENT_SET_NO":"999","PERIOD":"95.438","ARG_OF_PERICENTER":"52.8648","TIME_SYSTEM":"UTC","DECAY_DATE":null,"COUNTRY_CODE":"US","BSTAR":"0.00004718400000","REF_FRAME":"TEME","TLE_LINE1":"1 49768U 21115AW  22171.54112414  .00000463  00000-0  47184-4 0  9990","REV_AT_EPOCH":"3064","OBJECT_NAME":"STARLINK-3196","MEAN_MOTION_DOT":"0.00000463","CLASSIFICATION_TYPE":"U","MEAN_ANOMALY":"307.2536","ECCENTRICITY":"0.00021020","EPHEMERIS_TYPE":"0","OBJECT_TYPE":"PAYLOAD","FILE":"3498071","MEAN_MOTION":"15.08840317","OBJECT_ID":"2021-115AW","GP_ID":"206482033","SEMIMAJOR_AXIS":"6917.879","APOAPSIS":"541.199","TLE_LINE2":"2 49768  53.2173 116.0916 0002102  52.8648 307.2536 15.08840317 30645","SITE":"AFETR","CENTER_NAME":"EARTH","PERIAPSIS":"538.290","EPOCH":"2022-06-20T12:59:13.125696","MEAN_ELEMENT_THEORY":"SGP4","LAUNCH_DATE":"2021-12-02","NORAD_CAT_ID":"49768","RA_OF_ASC_NODE":"116.0916","MEAN_MOTION_DDOT":"0.0000000000000"},{"MEAN_MOTION_DOT":"-0.00000675","OBJECT_NAME":"STARLINK-3208","REV_AT_EPOCH":"3175","ECCENTRICITY":"0.00031300","MEAN_ANOMALY":"306.0323","CLASSIFICATION_TYPE":"U","DECAY_DATE":null,"TIME_SYSTEM":"UTC","ARG_OF_PERICENTER":"54.0959","PERIOD":"95.437","ELEMENT_SET_NO":"999","INCLINATION":"53.2171","RCS_SIZE":"LARGE","TLE_LINE1":"1 49769U 21115AX  22171.53745471 -.00000675  00000-0 -24240-4 0  9990","REF_FRAME":"TEME","BSTAR":"-0.00002424000000","COUNTRY_CODE":"US","EPOCH":"2022-06-20T12:53:56.086944","MEAN_ELEMENT_THEORY":"SGP4","MEAN_MOTION_DDOT":"0.0000000000000","NORAD_CAT_ID":"49769","RA_OF_ASC_NODE":"116.1128","LAUNCH_DATE":"2021-12-02","MEAN_MOTION":"15.08848542","FILE":"3498370","OBJECT_TYPE":"PAYLOAD","EPHEMERIS_TYPE":"0","PERIAPSIS":"537.554","SITE":"AFETR","TLE_LINE2":"2 49769  53.2171 116.1128 0003130  54.0959 306.0323 15.08848542 31753","CENTER_NAME":"EARTH","APOAPSIS":"541.885","GP_ID":"206490905","SEMIMAJOR_AXIS":"6917.854","OBJECT_ID":"2021-115AX"},{"CLASSIFICATION_TYPE":"U","MEAN_ANOMALY":"313.6872","ECCENTRICITY":"0.00028150","OBJECT_NAME":"STARLINK-3191","MEAN_MOTION_DOT":"-0.00001134","REV_AT_EPOCH":"3175","TLE_LINE1":"1 49770U 21115AY  22171.54479963 -.00001134  00000-0 -53136-4 0  9990","REF_FRAME":"TEME","COUNTRY_CODE":"US","BSTAR":"-0.00005313600000","DECAY_DATE":null,"ARG_OF_PERICENTER":"46.4354","TIME_SYSTEM":"UTC","ELEMENT_SET_NO":"999","PERIOD":"95.437","RCS_SIZE":"LARGE","INCLINATION":"53.2182","MEAN_MOTION_DDOT":"0.0000000000000","NORAD_CAT_ID":"49770","RA_OF_ASC_NODE":"116.0842","LAUNCH_DATE":"2021-12-02","EPOCH":"2022-06-20T13:04:30.688032","MEAN_ELEMENT_THEORY":"SGP4","TLE_LINE2":"2 49770  53.2182 116.0842 0002815  46.4354 313.6872 15.08844347 31754","SITE":"AFETR","CENTER_NAME":"EARTH","PERIAPSIS":"537.785","APOAPSIS":"541.679","OBJECT_ID":"2021-115AY","SEMIMAJOR_AXIS":"6917.867","GP_ID":"206490982","MEAN_MOTION":"15.08844347","FILE":"3498375","EPHEMERIS_TYPE":"0","OBJECT_TYPE":"PAYLOAD"},{"TIME_SYSTEM":"UTC","ARG_OF_PERICENTER":"54.7291","DECAY_DATE":null,"INCLINATION":"53.2168","RCS_SIZE":"LARGE","PERIOD":"95.438","ELEMENT_SET_NO":"999","TLE_LINE1":"1 49771U 21115AZ  22171.54849132 -.00000225  00000-0  39954-5 0  9992","BSTAR":"0.00000399540000","COUNTRY_CODE":"US","REF_FRAME":"TEME","REV_AT_EPOCH":"3175","MEAN_MOTION_DOT":"-0.00000225","OBJECT_NAME":"STARLINK-3201","MEAN_ANOMALY":"305.3947","ECCENTRICITY":"0.00026310","CLASSIFICATION_TYPE":"U","FILE":"3498375","MEAN_MOTION":"15.08831366","OBJECT_TYPE":"PAYLOAD","EPHEMERIS_TYPE":"0","PERIAPSIS":"537.952","SITE":"AFETR","TLE_LINE2":"2 49771  53.2168 116.0563 0002631  54.7291 305.3947 15.08831366 31755","CENTER_NAME":"EARTH","GP_ID":"206490660","SEMIMAJOR_AXIS":"6917.907","OBJECT_ID":"2021-115AZ","APOAPSIS":"541.592","MEAN_ELEMENT_THEORY":"SGP4","EPOCH":"2022-06-20T13:09:49.650048","NORAD_CAT_ID":"49771","RA_OF_ASC_NODE":"116.0563","MEAN_MOTION_DDOT":"0.0000000000000","LAUNCH_DATE":"2021-12-02"},{"BSTAR":"0.00002723300000","COUNTRY_CODE":"US","REF_FRAME":"TEME","TLE_LINE1":"1 50156U 21125A   22171.56508238  .00000145  00000-0  27233-4 0  9999","INCLINATION":"53.2175","RCS_SIZE":"LARGE","PERIOD":"95.437","ELEMENT_SET_NO":"999","TIME_SYSTEM":"UTC","ARG_OF_PERICENTER":"31.3306","DECAY_DATE":null,"MEAN_ANOMALY":"328.7824","ECCENTRICITY":"0.00023290","CLASSIFICATION_TYPE":"U","REV_AT_EPOCH":"3160","MEAN_MOTION_DOT":"0.00000145","OBJECT_NAME":"STARLINK-3317","SEMIMAJOR_AXIS":"6917.869","GP_ID":"206515367","OBJECT_ID":"2021-125A","APOAPSIS":"541.345","PERIAPSIS":"538.123","SITE":"AFWTR","TLE_LINE2":"2 50156  53.2175 225.9752 0002329  31.3306 328.7824 15.08843622 31609","CENTER_NAME":"EARTH","OBJECT_TYPE":"PAYLOAD","EPHEMERIS_TYPE":"0","MEAN_MOTION":"15.08843622","FILE":"3498404","LAUNCH_DATE":"2021-12-18","NORAD_CAT_ID":"50156","RA_OF_ASC_NODE":"225.9752","MEAN_MOTION_DDOT":"0.0000000000000","EPOCH":"2022-06-20T13:33:43.117632","MEAN_ELEMENT_THEORY":"SGP4"},{"TLE_LINE1":"1 50157U 21125B   22171.58896753  .00001209  00000-0  94052-4 0  9999","BSTAR":"0.00009405200000","COUNTRY_CODE":"US","REF_FRAME":"TEME","TIME_SYSTEM":"UTC","ARG_OF_PERICENTER":"34.6185","DECAY_DATE":null,"INCLINATION":"53.2148","RCS_SIZE":"LARGE","PERIOD":"95.437","ELEMENT_SET_NO":"999","MEAN_ANOMALY":"325.4964","ECCENTRICITY":"0.00024220","CLASSIFICATION_TYPE":"U","REV_AT_EPOCH":"3147","MEAN_MOTION_DOT":"0.00001209","OBJECT_NAME":"STARLINK-3313","PERIAPSIS":"538.064","TLE_LINE2":"2 50157  53.2148 235.8810 0002422  34.6185 325.4964 15.08841792 31470","SITE":"AFWTR","CENTER_NAME":"EARTH","GP_ID":"206514130","SEMIMAJOR_AXIS":"6917.875","OBJECT_ID":"2021-125B","APOAPSIS":"541.415","FILE":"3498404","MEAN_MOTION":"15.08841792","OBJECT_TYPE":"PAYLOAD","EPHEMERIS_TYPE":"0","NORAD_CAT_ID":"50157","RA_OF_ASC_NODE":"235.8810","MEAN_MOTION_DDOT":"0.0000000000000","LAUNCH_DATE":"2021-12-18","EPOCH":"2022-06-20T14:08:06.794592","MEAN_ELEMENT_THEORY":"SGP4"},{"DECAY_DATE":null,"TIME_SYSTEM":"UTC","ARG_OF_PERICENTER":"32.0033","PERIOD":"95.438","ELEMENT_SET_NO":"999","INCLINATION":"53.2163","RCS_SIZE":"LARGE","TLE_LINE1":"1 50158U 21125C   22171.90913271  .00000106  00000-0  24784-4 0  9991","REF_FRAME":"TEME","BSTAR":"0.00002478400000","COUNTRY_CODE":"US","MEAN_MOTION_DOT":"0.00000106","OBJECT_NAME":"STARLINK-3309","REV_AT_EPOCH":"3154","ECCENTRICITY":"0.00024630","MEAN_ANOMALY":"328.1109","CLASSIFICATION_TYPE":"U","MEAN_MOTION":"15.08840758","FILE":"3498404","OBJECT_TYPE":"PAYLOAD","EPHEMERIS_TYPE":"0","PERIAPSIS":"538.039","TLE_LINE2":"2 50158  53.2163 234.4486 0002463  32.0033 328.1109 15.08840758 31541","SITE":"AFWTR","CENTER_NAME":"EARTH","APOAPSIS":"541.447","GP_ID":"206514379","SEMIMAJOR_AXIS":"6917.878","OBJECT_ID":"2021-125C","EPOCH":"2022-06-20T21:49:09.066144","MEAN_ELEMENT_THEORY":"SGP4","MEAN_MOTION_DDOT":"0.0000000000000","NORAD_CAT_ID":"50158","RA_OF_ASC_NODE":"234.4486","LAUNCH_DATE":"2021-12-18"}];
